ATLAS CENTAUR 2         
1 00694U 63047A   25315.75023624  .00006490  00000+0  79018-3 0  9990
2 00694  30.3507 134.5173 0549935 121.2513 244.3146 14.11458349114946
THOR AGENA D R/B        
1 00733U 64002A   25316.02042710  .00000369  00000+0  14915-3 0  9998
2 00733  99.1222 317.9770 0032040 240.3022 119.4971 14.33932313221432
SL-3 R/B                
1 00877U 64053B   25316.25367838  .00000986  00000+0  21673-3 0  9993
2 00877  65.0770 315.4932 0071011 330.6556  29.0563 14.61226522249634
SL-8 R/B                
1 02802U 67045B   25316.13377499  .00000499  00000+0  14582-3 0  9998
2 02802  74.0112 207.6098 0065506 243.6972 115.7448 14.45500839 72037
SL-8 R/B                
1 03230U 68040B   25316.07579862  .00005296  00000+0  40220-3 0  9999
2 03230  74.0309 193.8278 0023614  44.0291 316.2772 15.02222879 72349
OAO 2                   
1 03597U 68110A   25316.01776214  .00000412  00000+0  11637-3 0  9992
2 03597  34.9925 202.1690 0005876 326.9327  33.0996 14.47214519  2040
ISIS 1                  
1 03669U 69009A   25315.55187500  .00000271  00000+0  19411-3 0  9993
2 03669  88.4516 168.2063 1707506 327.7236  22.9579 11.30336604335181
SERT 2                  
1 04327U 70009A   25316.33946515  .00000064  00000+0  14366-3 0  9997
2 04327  99.2598 260.9433 0005642 101.3969  49.6444 13.58711830763951
SL-3 R/B                
1 05118U 71028B   25316.27080258  .00057673  00000+0  93332-3 0  9992
2 05118  81.2401 196.0284 0021589 352.2975   7.7939 15.52313883970405
ASTEX 1                 
1 05560U 71089A   25316.00847903  .00000993  00000+0  25312-3 0  9995
2 05560  92.7121 113.6808 0017557 118.3693 241.9286 14.50582315845242
SL-8 R/B                
1 05730U 71119B   25316.29918669  .00014122  00000+0  74696-3 0  9995
2 05730  73.8895  34.6776 0561087  25.1375 337.5990 14.34966996638639
OAO 3 (COPERNICUS)      
1 06153U 72065A   25316.26113304  .00000983  00000+0  20658-3 0  9995
2 06153  35.0058 246.2868 0007336 278.3562 240.1166 14.59867318829029
