CCSDS_OMM_VERS = 2.0
CREATION_DATE  = 
ORIGINATOR     = 

OBJECT_NAME    = ATLAS CENTAUR 2
OBJECT_ID      = 1963-047A
CENTER_NAME    = EARTH
REF_FRAME      = TEME
TIME_SYSTEM    = UTC
MEAN_ELEMENT_THEORY = SGP/SGP4

EPOCH          = 2025-11-11T18:00:20.411136
MEAN_MOTION    = 14.11458349
ECCENTRICITY   = .05499358
INCLINATION    = 30.3507
RA_OF_ASC_NODE = 134.5173
ARG_OF_PERICENTER = 121.2513
MEAN_ANOMALY   = 244.3146

EPHEMERIS_TYPE = 0
CLASSIFICATION_TYPE = U
NORAD_CAT_ID   = 694
ELEMENT_SET_NO = 999
REV_AT_EPOCH   = 11494
BSTAR          = .79018457E-3
MEAN_MOTION_DOT = .649E-4
MEAN_MOTION_DDOT = 0

CCSDS_OMM_VERS = 2.0
CREATION_DATE  = 
ORIGINATOR     = 

OBJECT_NAME    = THOR AGENA D R/B
OBJECT_ID      = 1964-002A
CENTER_NAME    = EARTH
REF_FRAME      = TEME
TIME_SYSTEM    = UTC
MEAN_ELEMENT_THEORY = SGP/SGP4

EPOCH          = 2025-11-12T00:29:24.901440
MEAN_MOTION    = 14.33932313
ECCENTRICITY   = .00320405
INCLINATION    = 99.1222
RA_OF_ASC_NODE = 317.9770
ARG_OF_PERICENTER = 240.3022
MEAN_ANOMALY   = 119.4971

EPHEMERIS_TYPE = 0
CLASSIFICATION_TYPE = U
NORAD_CAT_ID   = 733
ELEMENT_SET_NO = 999
REV_AT_EPOCH   = 22143
BSTAR          = .14914517E-3
MEAN_MOTION_DOT = .369E-5
MEAN_MOTION_DDOT = 0

CCSDS_OMM_VERS = 2.0
CREATION_DATE  = 
ORIGINATOR     = 

OBJECT_NAME    = SL-3 R/B
OBJECT_ID      = 1964-053B
CENTER_NAME    = EARTH
REF_FRAME      = TEME
TIME_SYSTEM    = UTC
MEAN_ELEMENT_THEORY = SGP/SGP4

EPOCH          = 2025-11-12T06:05:17.812032
MEAN_MOTION    = 14.61226522
ECCENTRICITY   = .00710113
INCLINATION    = 65.0770
RA_OF_ASC_NODE = 315.4932
ARG_OF_PERICENTER = 330.6556
MEAN_ANOMALY   = 29.0563

EPHEMERIS_TYPE = 0
CLASSIFICATION_TYPE = U
NORAD_CAT_ID   = 877
ELEMENT_SET_NO = 999
REV_AT_EPOCH   = 24963
BSTAR          = .21672703E-3
MEAN_MOTION_DOT = .986E-5
MEAN_MOTION_DDOT = 0

CCSDS_OMM_VERS = 2.0
CREATION_DATE  = 
ORIGINATOR     = 

OBJECT_NAME    = SL-8 R/B
OBJECT_ID      = 1967-045B
CENTER_NAME    = EARTH
REF_FRAME      = TEME
TIME_SYSTEM    = UTC
MEAN_ELEMENT_THEORY = SGP/SGP4

EPOCH          = 2025-11-12T03:12:38.159136
MEAN_MOTION    = 14.45500839
ECCENTRICITY   = .00655065
INCLINATION    = 74.0112
RA_OF_ASC_NODE = 207.6098
ARG_OF_PERICENTER = 243.6972
MEAN_ANOMALY   = 115.7448

EPHEMERIS_TYPE = 0
CLASSIFICATION_TYPE = U
NORAD_CAT_ID   = 2802
ELEMENT_SET_NO = 999
REV_AT_EPOCH   = 7203
BSTAR          = .14582449E-3
MEAN_MOTION_DOT = .499E-5
MEAN_MOTION_DDOT = 0

CCSDS_OMM_VERS = 2.0
CREATION_DATE  = 
ORIGINATOR     = 

OBJECT_NAME    = SL-8 R/B
OBJECT_ID      = 1968-040B
CENTER_NAME    = EARTH
REF_FRAME      = TEME
TIME_SYSTEM    = UTC
MEAN_ELEMENT_THEORY = SGP/SGP4

EPOCH          = 2025-11-12T01:49:09.000768
MEAN_MOTION    = 15.02222879
ECCENTRICITY   = .00236143
INCLINATION    = 74.0309
RA_OF_ASC_NODE = 193.8278
ARG_OF_PERICENTER = 44.0291
MEAN_ANOMALY   = 316.2772

EPHEMERIS_TYPE = 0
CLASSIFICATION_TYPE = U
NORAD_CAT_ID   = 3230
ELEMENT_SET_NO = 999
REV_AT_EPOCH   = 7234
BSTAR          = .40219658E-3
MEAN_MOTION_DOT = .5296E-4
MEAN_MOTION_DDOT = 0

CCSDS_OMM_VERS = 2.0
CREATION_DATE  = 
ORIGINATOR     = 

OBJECT_NAME    = OAO 2
OBJECT_ID      = 1968-110A
CENTER_NAME    = EARTH
REF_FRAME      = TEME
TIME_SYSTEM    = UTC
MEAN_ELEMENT_THEORY = SGP/SGP4

EPOCH          = 2025-11-12T00:25:34.648896
MEAN_MOTION    = 14.47214519
ECCENTRICITY   = .00058761
INCLINATION    = 34.9925
RA_OF_ASC_NODE = 202.1690
ARG_OF_PERICENTER = 326.9327
MEAN_ANOMALY   = 33.0996

EPHEMERIS_TYPE = 0
CLASSIFICATION_TYPE = U
NORAD_CAT_ID   = 3597
ELEMENT_SET_NO = 999
REV_AT_EPOCH   = 204
BSTAR          = .11636794E-3
MEAN_MOTION_DOT = .412E-5
MEAN_MOTION_DDOT = 0

CCSDS_OMM_VERS = 2.0
CREATION_DATE  = 
ORIGINATOR     = 

OBJECT_NAME    = ISIS 1
OBJECT_ID      = 1969-009A
CENTER_NAME    = EARTH
REF_FRAME      = TEME
TIME_SYSTEM    = UTC
MEAN_ELEMENT_THEORY = SGP/SGP4

EPOCH          = 2025-11-11T13:14:42.000000
MEAN_MOTION    = 11.30336604
ECCENTRICITY   = .17075068
INCLINATION    = 88.4516
RA_OF_ASC_NODE = 168.2063
ARG_OF_PERICENTER = 327.7236
MEAN_ANOMALY   = 22.9579

EPHEMERIS_TYPE = 0
CLASSIFICATION_TYPE = U
NORAD_CAT_ID   = 3669
ELEMENT_SET_NO = 999
REV_AT_EPOCH   = 33518
BSTAR          = .19411009E-3
MEAN_MOTION_DOT = .271E-5
MEAN_MOTION_DDOT = 0

CCSDS_OMM_VERS = 2.0
CREATION_DATE  = 
ORIGINATOR     = 

OBJECT_NAME    = SERT 2
OBJECT_ID      = 1970-009A
CENTER_NAME    = EARTH
REF_FRAME      = TEME
TIME_SYSTEM    = UTC
MEAN_ELEMENT_THEORY = SGP/SGP4

EPOCH          = 2025-11-12T08:08:49.788960
MEAN_MOTION    = 13.58711830
ECCENTRICITY   = .00056426
INCLINATION    = 99.2598
RA_OF_ASC_NODE = 260.9433
ARG_OF_PERICENTER = 101.3969
MEAN_ANOMALY   = 49.6444

EPHEMERIS_TYPE = 0
CLASSIFICATION_TYPE = U
NORAD_CAT_ID   = 4327
ELEMENT_SET_NO = 999
REV_AT_EPOCH   = 76395
BSTAR          = .14365777E-3
MEAN_MOTION_DOT = .64E-6
MEAN_MOTION_DDOT = 0

CCSDS_OMM_VERS = 2.0
CREATION_DATE  = 
ORIGINATOR     = 

OBJECT_NAME    = SL-3 R/B
OBJECT_ID      = 1971-028B
CENTER_NAME    = EARTH
REF_FRAME      = TEME
TIME_SYSTEM    = UTC
MEAN_ELEMENT_THEORY = SGP/SGP4

EPOCH          = 2025-11-12T06:29:57.342912
MEAN_MOTION    = 15.52313883
ECCENTRICITY   = .00215898
INCLINATION    = 81.2401
RA_OF_ASC_NODE = 196.0284
ARG_OF_PERICENTER = 352.2975
MEAN_ANOMALY   = 7.7939

EPHEMERIS_TYPE = 0
CLASSIFICATION_TYPE = U
NORAD_CAT_ID   = 5118
ELEMENT_SET_NO = 999
REV_AT_EPOCH   = 97040
BSTAR          = .93331538E-3
MEAN_MOTION_DOT = .57673E-3
MEAN_MOTION_DDOT = 0

CCSDS_OMM_VERS = 2.0
CREATION_DATE  = 
ORIGINATOR     = 

OBJECT_NAME    = ASTEX 1
OBJECT_ID      = 1971-089A
CENTER_NAME    = EARTH
REF_FRAME      = TEME
TIME_SYSTEM    = UTC
MEAN_ELEMENT_THEORY = SGP/SGP4

EPOCH          = 2025-11-12T00:12:12.588192
MEAN_MOTION    = 14.50582315
ECCENTRICITY   = .00175574
INCLINATION    = 92.7121
RA_OF_ASC_NODE = 113.6808
ARG_OF_PERICENTER = 118.3693
MEAN_ANOMALY   = 241.9286

EPHEMERIS_TYPE = 0
CLASSIFICATION_TYPE = U
NORAD_CAT_ID   = 5560
ELEMENT_SET_NO = 999
REV_AT_EPOCH   = 84524
BSTAR          = .25311924E-3
MEAN_MOTION_DOT = .993E-5
MEAN_MOTION_DDOT = 0

CCSDS_OMM_VERS = 2.0
CREATION_DATE  = 
ORIGINATOR     = 

OBJECT_NAME    = SL-8 R/B
OBJECT_ID      = 1971-119B
CENTER_NAME    = EARTH
REF_FRAME      = TEME
TIME_SYSTEM    = UTC
MEAN_ELEMENT_THEORY = SGP/SGP4

EPOCH          = 2025-11-12T07:10:49.730016
MEAN_MOTION    = 14.34966996
ECCENTRICITY   = .05610874
INCLINATION    = 73.8895
RA_OF_ASC_NODE = 34.6776
ARG_OF_PERICENTER = 25.1375
MEAN_ANOMALY   = 337.5990

EPHEMERIS_TYPE = 0
CLASSIFICATION_TYPE = U
NORAD_CAT_ID   = 5730
ELEMENT_SET_NO = 999
REV_AT_EPOCH   = 63863
BSTAR          = .74696304E-3
MEAN_MOTION_DOT = .14122E-3
MEAN_MOTION_DDOT = 0

CCSDS_OMM_VERS = 2.0
CREATION_DATE  = 
ORIGINATOR     = 

OBJECT_NAME    = OAO 3 (COPERNICUS)
OBJECT_ID      = 1972-065A
CENTER_NAME    = EARTH
REF_FRAME      = TEME
TIME_SYSTEM    = UTC
MEAN_ELEMENT_THEORY = SGP/SGP4

EPOCH          = 2025-11-12T06:16:01.894656
MEAN_MOTION    = 14.59867318
ECCENTRICITY   = .00073367
INCLINATION    = 35.0058
RA_OF_ASC_NODE = 246.2868
ARG_OF_PERICENTER = 278.3562
MEAN_ANOMALY   = 240.1166

EPHEMERIS_TYPE = 0
CLASSIFICATION_TYPE = U
NORAD_CAT_ID   = 6153
ELEMENT_SET_NO = 999
REV_AT_EPOCH   = 82902
BSTAR          = .20658493E-3
MEAN_MOTION_DOT = .983E-5
MEAN_MOTION_DDOT = 0

